{"type": "FeatureCollection", "features": [ {"type": "Feature", "properties": {"norad_id": 41774, "name": "SKYSAT-C3", "group": "resource", "lat": 31.7588075457875, "lon": -162.11418722860003, "alt_km": 431.89033792812825, "timestamp": "2025-12-05T11:32:55.683884+00:00", "meta": {"OBJECT_NAME": "SKYSAT-C3", "OBJECT_ID": "2016-058E", "EPOCH": "2025-12-04T14:41:23.987616", "MEAN_MOTION": 15.43974595, "ECCENTRICITY": 0.0001402, "INCLINATION": 96.9306, "RA_OF_ASC_NODE": 12.739, "ARG_OF_PERICENTER": 101.9165, "MEAN_ANOMALY": 258.2241, "EPHEMERIS_TYPE": 0, "CLASSIFICATION_TYPE": "U", "NORAD_CAT_ID": 41774, "ELEMENT_SET_NO": 999, "REV_AT_EPOCH": 51600, "BSTAR": 0.00075824, "MEAN_MOTION_DOT": 0.00034552, "MEAN_MOTION_DDOT": 0}, "tle": {"line1": "1 41774U 16058E   25338.61208319  .00034552  00000+0  75824-3 0  9991", "line2": "2 41774  96.9306  12.7390 0001402 101.9165 258.2241 15.43974595516008"}}, "geometry": {"type": "Point", "coordinates": [-162.11418722860003, 31.7588075457875]}}, {"type": "Feature", "properties": {"norad_id": 41785, "name": "ALSAT 1B", "group": "resource", "lat": 81.94341311136698, "lon": -83.456102823756, "alt_km": 641.0905985477712, "timestamp": "2025-12-05T11:32:55.683895+00:00", "meta": {"OBJECT_NAME": "ALSAT 1B", "OBJECT_ID": "2016-059C", "EPOCH": "2025-12-04T18:50:14.879616", "MEAN_MOTION": 14.72062819, "ECCENTRICITY": 0.0010454, "INCLINATION": 97.7818, "RA_OF_ASC_NODE": 350.9179, "ARG_OF_PERICENTER": 126.3608, "MEAN_ANOMALY": 233.8566, "EPHEMERIS_TYPE": 0, "CLASSIFICATION_TYPE": "U", "NORAD_CAT_ID": 41785, "ELEMENT_SET_NO": 999, "REV_AT_EPOCH": 49197, "BSTAR": 0.00015012, "MEAN_MOTION_DOT": 8.97e-06, "MEAN_MOTION_DDOT": 0}, "tle": {"line1": "1 41785U 16059C   25338.78489444  .00000897  00000+0  15012-3 0  9990", "line2": "2 41785  97.7818 350.9179 0010454 126.3608 233.8566 14.72062819491974"}}, "geometry": {"type": "Point", "coordinates": [-83.456102823756, 81.94341311136698]}}, {"type": "Feature", "properties": {"norad_id": 41787, "name": "PATHFINDER 1", "group": "resource", "lat": -67.98261091046678, "lon": 2.44309457391258, "alt_km": 697.911479408891, "timestamp": "2025-12-05T11:32:55.683905+00:00", "meta": {"OBJECT_NAME": "PATHFINDER 1", "OBJECT_ID": "2016-059E", "EPOCH": "2025-12-04T12:57:09.766368", "MEAN_MOTION": 14.67299376, "ECCENTRICITY": 0.0029989, "INCLINATION": 97.8138, "RA_OF_ASC_NODE": 341.6939, "ARG_OF_PERICENTER": 106.1048, "MEAN_ANOMALY": 254.3462, "EPHEMERIS_TYPE": 0, "CLASSIFICATION_TYPE": "U", "NORAD_CAT_ID": 41787, "ELEMENT_SET_NO": 999, "REV_AT_EPOCH": 49116, "BSTAR": 0.0002744, "MEAN_MOTION_DOT": 1.512e-05, "MEAN_MOTION_DDOT": 0}, "tle": {"line1": "1 41787U 16059E   25338.53969637  .00001512  00000+0  27440-3 0  9995", "line2": "2 41787  97.8138 341.6939 0029989 106.1048 254.3462 14.67299376491168"}}, "geometry": {"type": "Point", "coordinates": [2.44309457391258, -67.98261091046678]}}, {"type": "Feature", "properties": {"norad_id": 41790, "name": "SCATSAT 1", "group": "resource", "lat": -19.747627353867287, "lon": 39.009069174609095, "alt_km": 676.6607350612721, "timestamp": "2025-12-05T11:32:55.683915+00:00", "meta": {"OBJECT_NAME": "SCATSAT 1", "OBJECT_ID": "2016-059H", "EPOCH": "2025-12-04T16:09:14.080032", "MEAN_MOTION": 14.78893296, "ECCENTRICITY": 0.005588, "INCLINATION": 98.1475, "RA_OF_ASC_NODE": 35.2428, "ARG_OF_PERICENTER": 153.5918, "MEAN_ANOMALY": 206.816, "EPHEMERIS_TYPE": 0, "CLASSIFICATION_TYPE": "U", "NORAD_CAT_ID": 41790, "ELEMENT_SET_NO": 999, "REV_AT_EPOCH": 7283, "BSTAR": 0.00049643, "MEAN_MOTION_DOT": 3.699e-05, "MEAN_MOTION_DDOT": 0}, "tle": {"line1": "1 41790U 16059H   25338.67307963  .00003699  00000+0  49643-3 0  9999", "line2": "2 41790  98.1475  35.2428 0055880 153.5918 206.8160 14.78893296 72839"}}, "geometry": {"type": "Point", "coordinates": [39.009069174609095, -19.747627353867287]}}, {"type": "Feature", "properties": {"norad_id": 41875, "name": "GOKTURK 1A", "group": "resource", "lat": 52.998170100091976, "lon": 62.89562464185938, "alt_km": 678.6645939314931, "timestamp": "2025-12-05T11:32:55.683925+00:00", "meta": {"OBJECT_NAME": "GOKTURK 1A", "OBJECT_ID": "2016-073A", "EPOCH": "2025-12-04T18:33:25.675776", "MEAN_MOTION": 14.6276651, "ECCENTRICITY": 0.0001251, "INCLINATION": 98.1431, "RA_OF_ASC_NODE": 231.2446, "ARG_OF_PERICENTER": 82.2061, "MEAN_ANOMALY": 277.9283, "EPHEMERIS_TYPE": 0, "CLASSIFICATION_TYPE": "U", "NORAD_CAT_ID": 41875, "ELEMENT_SET_NO": 999, "REV_AT_EPOCH": 48040, "BSTAR": 0.00039606, "MEAN_MOTION_DOT": 1.973e-05, "MEAN_MOTION_DDOT": 0}, "tle": {"line1": "1 41875U 16073A   25338.77321384  .00001973  00000+0  39606-3 0  9994", "line2": "2 41875  98.1431 231.2446 0001251  82.2061 277.9283 14.62766510480405"}}, "geometry": {"type": "Point", "coordinates": [62.89562464185938, 52.998170100091976]}}, {"type": "Feature", "properties": {"norad_id": 41877, "name": "RESOURCESAT-2A", "group": "resource", "lat": 10.636024592803725, "lon": -128.95833125176813, "alt_km": 821.8510604101721, "timestamp": "2025-12-05T11:32:55.683935+00:00", "meta": {"OBJECT_NAME": "RESOURCESAT-2A", "OBJECT_ID": "2016-074A", "EPOCH": "2025-12-04T17:51:49.400064", "MEAN_MOTION": 14.21594371, "ECCENTRICITY": 0.0001151, "INCLINATION": 98.7766, "RA_OF_ASC_NODE": 48.6466, "ARG_OF_PERICENTER": 294.7687, "MEAN_ANOMALY": 65.337, "EPHEMERIS_TYPE": 0, "CLASSIFICATION_TYPE": "U", "NORAD_CAT_ID": 41877, "ELEMENT_SET_NO": 999, "REV_AT_EPOCH": 46667, "BSTAR": 0.00018263, "MEAN_MOTION_DOT": 3.56e-06, "MEAN_MOTION_DDOT": 0}, "tle": {"line1": "1 41877U 16074A   25338.74432176  .00000356  00000+0  18263-3 0  9996", "line2": "2 41877  98.7766  48.6466 0001151 294.7687  65.3370 14.21594371466677"}}, "geometry": {"type": "Point", "coordinates": [-128.95833125176813, 10.636024592803725]}}, {"type": "Feature", "properties": {"norad_id": 41948, "name": "CARTOSAT-2D", "group": "resource", "lat": 30.231013643550686, "lon": -138.54233730663685, "alt_km": 504.7075206741083, "timestamp": "2025-12-05T11:32:55.683945+00:00", "meta": {"OBJECT_NAME": "CARTOSAT-2D", "OBJECT_ID": "2017-008A", "EPOCH": "2025-12-04T17:30:14.438592", "MEAN_MOTION": 15.19138978, "ECCENTRICITY": 0.0003981, "INCLINATION": 97.4402, "RA_OF_ASC_NODE": 36.3497, "ARG_OF_PERICENTER": 189.9755, "MEAN_ANOMALY": 170.1402, "EPHEMERIS_TYPE": 0, "CLASSIFICATION_TYPE": "U", "NORAD_CAT_ID": 41948, "ELEMENT_SET_NO": 999, "REV_AT_EPOCH": 48805, "BSTAR": 0.00088503, "MEAN_MOTION_DOT": 0.00018561, "MEAN_MOTION_DDOT": 0}, "tle": {"line1": "1 41948U 17008A   25338.72933378  .00018561  00000+0  88503-3 0  9992", "line2": "2 41948  97.4402  36.3497 0003981 189.9755 170.1402 15.19138978488053"}}, "geometry": {"type": "Point", "coordinates": [-138.54233730663685, 30.231013643550686]}}, {"type": "Feature", "properties": {"norad_id": 42063, "name": "SENTINEL-2B", "group": "resource", "lat": -74.75295906953106, "lon": -161.57181085975455, "alt_km": 797.0809988986339, "timestamp": "2025-12-05T11:32:55.683956+00:00", "meta": {"OBJECT_NAME": "SENTINEL-2B", "OBJECT_ID": "2017-013A", "EPOCH": "2025-12-04T17:33:59.457024", "MEAN_MOTION": 14.30811257, "ECCENTRICITY": 0.0001123, "INCLINATION": 98.5726, "RA_OF_ASC_NODE": 51.2901, "ARG_OF_PERICENTER": 98.1061, "MEAN_ANOMALY": 262.0249, "EPHEMERIS_TYPE": 0, "CLASSIFICATION_TYPE": "U", "NORAD_CAT_ID": 42063, "ELEMENT_SET_NO": 999, "REV_AT_EPOCH": 45683, "BSTAR": 0.00014712, "MEAN_MOTION_DOT": 3.42e-06, "MEAN_MOTION_DDOT": 0}, "tle": {"line1": "1 42063U 17013A   25338.73193816  .00000342  00000+0  14712-3 0  9992", "line2": "2 42063  98.5726  51.2901 0001123  98.1061 262.0249 14.30811257456837"}}, "geometry": {"type": "Point", "coordinates": [-161.57181085975455, -74.75295906953106]}}, {"type": "Feature", "properties": {"norad_id": 42767, "name": "CARTOSAT-2E", "group": "resource", "lat": 58.2904137177962, "lon": 24.923363440541596, "alt_km": 503.8947048050677, "timestamp": "2025-12-05T11:32:55.683966+00:00", "meta": {"OBJECT_NAME": "CARTOSAT-2E", "OBJECT_ID": "2017-036C", "EPOCH": "2025-12-04T17:54:03.564576", "MEAN_MOTION": 15.19197961, "ECCENTRICITY": 0.0002303, "INCLINATION": 97.4571, "RA_OF_ASC_NODE": 36.437, "ARG_OF_PERICENTER": 278.6097, "MEAN_ANOMALY": 81.4876, "EPHEMERIS_TYPE": 0, "CLASSIFICATION_TYPE": "U", "NORAD_CAT_ID": 42767, "ELEMENT_SET_NO": 999, "REV_AT_EPOCH": 46862, "BSTAR": 0.00055506, "MEAN_MOTION_DOT": 0.00011623, "MEAN_MOTION_DDOT": 0}, "tle": {"line1": "1 42767U 17036C   25338.74587459  .00011623  00000+0  55506-3 0  9999", "line2": "2 42767  97.4571  36.4370 0002303 278.6097  81.4876 15.19197961468620"}}, "geometry": {"type": "Point", "coordinates": [24.923363440541596, 58.2904137177962]}}, {"type": "Feature", "properties": {"norad_id": 42920, "name": "FORMOSAT-5", "group": "resource", "lat": 81.26549389723347, "lon": -55.33915976557807, "alt_km": 719.8741707605232, "timestamp": "2025-12-05T11:32:55.683977+00:00", "meta": {"OBJECT_NAME": "FORMOSAT-5", "OBJECT_ID": "2017-049A", "EPOCH": "2025-12-04T15:15:44.658720", "MEAN_MOTION": 14.50997918, "ECCENTRICITY": 0.0010241, "INCLINATION": 98.2461, "RA_OF_ASC_NODE": 53.1154, "ARG_OF_PERICENTER": 322.6945, "MEAN_ANOMALY": 37.3538, "EPHEMERIS_TYPE": 0, "CLASSIFICATION_TYPE": "U", "NORAD_CAT_ID": 42920, "ELEMENT_SET_NO": 999, "REV_AT_EPOCH": 43846, "BSTAR": 0.00014417, "MEAN_MOTION_DOT": 5.26e-06, "MEAN_MOTION_DDOT": 0}, "tle": {"line1": "1 42920U 17049A   25338.63593355  .00000526  00000+0  14417-3 0  9990", "line2": "2 42920  98.2461  53.1154 0010241 322.6945  37.3538 14.50997918438464"}}, "geometry": {"type": "Point", "coordinates": [-55.33915976557807, 81.26549389723347]}}]}